SHERPA-AC1              
1 52763U 22057AH  26068.88332881  .00010651  00000+0  31898-3 0  9996
2 52763  97.6522 214.1740 0009036  87.4363 272.7914 15.34672465210462
DONGPO 09               
1 54685U 22167D   26068.94578953  .00016547  00000+0  50563-3 0  9992
2 54685  97.6808 235.7428 0003638 115.2371 244.9249 15.33957076180222
